{
  "type": "FeatureCollection",
  "features": [
    {
      "type": "Feature",
      "properties": {
        "norad_id": 44709,
        "name": "BEIDOU-3 IGSO-3 (C40)",
        "group": "beidou",
        "lat": -55.154828321811785,
        "lon": -166.3705989527252,
        "alt_km": 35763.72066752725,
        "timestamp": "2025-12-16T23:36:36.461910+00:00",
        "meta_object_name": "BEIDOU-3 IGSO-3 (C40)",
        "meta_object_id": "2019-073A",
        "meta_epoch": "2025-11-20T07:11:22.740000",
        "meta_mean_motion": 1.00250097,
        "meta_eccentricity": 0.0044538,
        "meta_inclination": 55.163,
        "meta_ra_of_asc_node": 283.159,
        "meta_arg_of_pericenter": 191.5856,
        "meta_mean_anomaly": 168.2409,
        "meta_ephemeris_type": 0,
        "meta_classification_type": "U",
        "meta_norad_cat_id": 44709,
        "meta_element_set_no": 999,
        "meta_rev_at_epoch": 2236,
        "meta_bstar": 0,
        "meta_mean_motion_dot": -2.06e-06,
        "meta_mean_motion_ddot": 0,
        "tle_line1": "1 44709U 19073A   25324.29956875 -.00000206  00000+0  00000+0 0  9998",
        "tle_line2": "2 44709  55.1630 283.1590 0044538 191.5856 168.2409  1.00250097 22360"
      },
      "geometry": {
        "type": "Point",
        "coordinates": [
          -166.3705989527252,
          -55.154828321811785
        ]
      }
    },
    {
      "type": "Feature",
      "properties": {
        "norad_id": 44793,
        "name": "BEIDOU-3 M22 (C44)",
        "group": "beidou",
        "lat": -36.73817831990918,
        "lon": -86.48060836368825,
        "alt_km": 21527.165124211308,
        "timestamp": "2025-12-16T23:36:36.461927+00:00",
        "meta_object_name": "BEIDOU-3 M22 (C44)",
        "meta_object_id": "2019-078A",
        "meta_epoch": "2025-12-15T23:32:20.992992",
        "meta_mean_motion": 1.86231869,
        "meta_eccentricity": 0.00058075,
        "meta_inclination": 54.1051,
        "meta_ra_of_asc_node": 306.2718,
        "meta_arg_of_pericenter": 23.5551,
        "meta_mean_anomaly": 336.4582,
        "meta_ephemeris_type": 0,
        "meta_classification_type": "U",
        "meta_norad_cat_id": 44793,
        "meta_element_set_no": 999,
        "meta_rev_at_epoch": 4123,
        "meta_bstar": 0,
        "meta_mean_motion_dot": -9.7e-07,
        "meta_mean_motion_ddot": 0,
        "tle_line1": "1 44793U 19078A   25349.98079853 -.00000097  00000+0  00000+0 0  9999",
        "tle_line2": "2 44793  54.1051 306.2718 0005807  23.5551 336.4582  1.86231869 41238"
      },
      "geometry": {
        "type": "Point",
        "coordinates": [
          -86.48060836368825,
          -36.73817831990918
        ]
      }
    },
    {
      "type": "Feature",
      "properties": {
        "norad_id": 44794,
        "name": "BEIDOU-3 M21 (C43)",
        "group": "beidou",
        "lat": -31.44259334962816,
        "lon": 152.46750657997652,
        "alt_km": 21542.08026712297,
        "timestamp": "2025-12-16T23:36:36.461938+00:00",
        "meta_object_name": "BEIDOU-3 M21 (C43)",
        "meta_object_id": "2019-078B",
        "meta_epoch": "2025-12-15T13:57:29.064096",
        "meta_mean_motion": 1.86227547,
        "meta_eccentricity": 0.00039999,
        "meta_inclination": 54.0788,
        "meta_ra_of_asc_node": 306.2509,
        "meta_arg_of_pericenter": 11.1298,
        "meta_mean_anomaly": 348.8661,
        "meta_ephemeris_type": 0,
        "meta_classification_type": "U",
        "meta_norad_cat_id": 44794,
        "meta_element_set_no": 999,
        "meta_rev_at_epoch": 4123,
        "meta_bstar": 0,
        "meta_mean_motion_dot": -9.9e-07,
        "meta_mean_motion_ddot": 0,
        "tle_line1": "1 44794U 19078B   25349.58158639 -.00000099  00000+0  00000+0 0  9998",
        "tle_line2": "2 44794  54.0788 306.2509 0003999  11.1298 348.8661  1.86227547 41237"
      },
      "geometry": {
        "type": "Point",
        "coordinates": [
          152.46750657997652,
          -31.44259334962816
        ]
      }
    },
    {
      "type": "Feature",
      "properties": {
        "norad_id": 44864,
        "name": "BEIDOU-3 M19 (C41)",
        "group": "beidou",
        "lat": 43.68713801958231,
        "lon": 108.1864756625822,
        "alt_km": 21555.2796268508,
        "timestamp": "2025-12-16T23:36:36.461950+00:00",
        "meta_object_name": "BEIDOU-3 M19 (C41)",
        "meta_object_id": "2019-090A",
        "meta_epoch": "2025-12-10T23:47:39.658272",
        "meta_mean_motion": 1.86231263,
        "meta_eccentricity": 0.0017877,
        "meta_inclination": 56.392,
        "meta_ra_of_asc_node": 69.0187,
        "meta_arg_of_pericenter": 285.2046,
        "meta_mean_anomaly": 73.1126,
        "meta_ephemeris_type": 0,
        "meta_classification_type": "U",
        "meta_norad_cat_id": 44864,
        "meta_element_set_no": 999,
        "meta_rev_at_epoch": 4072,
        "meta_bstar": 0,
        "meta_mean_motion_dot": -6e-07,
        "meta_mean_motion_ddot": 0,
        "tle_line1": "1 44864U 19090A   25344.99143123 -.00000060  00000+0  00000+0 0  9990",
        "tle_line2": "2 44864  56.3920  69.0187 0017877 285.2046  73.1126  1.86231263 40726"
      },
      "geometry": {
        "type": "Point",
        "coordinates": [
          108.1864756625822,
          43.68713801958231
        ]
      }
    },
    {
      "type": "Feature",
      "properties": {
        "norad_id": 44865,
        "name": "BEIDOU-3 M20 (C42)",
        "group": "beidou",
        "lat": 28.217772748876282,
        "lon": -132.00262161318278,
        "alt_km": 21561.48063487309,
        "timestamp": "2025-12-16T23:36:36.461962+00:00",
        "meta_object_name": "BEIDOU-3 M20 (C42)",
        "meta_object_id": "2019-090B",
        "meta_epoch": "2025-12-10T20:36:05.507712",
        "meta_mean_motion": 1.86231317,
        "meta_eccentricity": 0.0014897,
        "meta_inclination": 56.3937,
        "meta_ra_of_asc_node": 69.0576,
        "meta_arg_of_pericenter": 298.003,
        "meta_mean_anomaly": 60.7372,
        "meta_ephemeris_type": 0,
        "meta_classification_type": "U",
        "meta_norad_cat_id": 44865,
        "meta_element_set_no": 999,
        "meta_rev_at_epoch": 4070,
        "meta_bstar": 0,
        "meta_mean_motion_dot": -5.8e-07,
        "meta_mean_motion_ddot": 0,
        "tle_line1": "1 44865U 19090B   25344.85839708 -.00000058  00000+0  00000+0 0  9994",
        "tle_line2": "2 44865  56.3937  69.0576 0014897 298.0030  60.7372  1.86231317 40704"
      },
      "geometry": {
        "type": "Point",
        "coordinates": [
          -132.00262161318278,
          28.217772748876282
        ]
      }
    },
    {
      "type": "Feature",
      "properties": {
        "norad_id": 45344,
        "name": "BEIDOU-3 G2 (C60)",
        "group": "beidou",
        "lat": 2.250727917174562,
        "lon": 160.06216676179713,
        "alt_km": 35802.08072108112,
        "timestamp": "2025-12-16T23:36:36.461974+00:00",
        "meta_object_name": "BEIDOU-3 G2 (C60)",
        "meta_object_id": "2020-017A",
        "meta_epoch": "2025-12-16T08:36:05.183712",
        "meta_mean_motion": 1.00273108,
        "meta_eccentricity": 0.00043735,
        "meta_inclination": 2.504,
        "meta_ra_of_asc_node": 43.9369,
        "meta_arg_of_pericenter": 271.0939,
        "meta_mean_anomaly": 339.2897,
        "meta_ephemeris_type": 0,
        "meta_classification_type": "U",
        "meta_norad_cat_id": 45344,
        "meta_element_set_no": 999,
        "meta_rev_at_epoch": 2142,
        "meta_bstar": 0,
        "meta_mean_motion_dot": -1.19e-06,
        "meta_mean_motion_ddot": 0,
        "tle_line1": "1 45344U 20017A   25350.35839333 -.00000119  00000+0  00000+0 0  9992",
        "tle_line2": "2 45344   2.5040  43.9369 0004373 271.0939 339.2897  1.00273108 21427"
      },
      "geometry": {
        "type": "Point",
        "coordinates": [
          160.06216676179713,
          2.250727917174562
        ]
      }
    },
    {
      "type": "Feature",
      "properties": {
        "norad_id": 45807,
        "name": "BEIDOU-3 G3 (C61)",
        "group": "beidou",
        "lat": 1.6480057296443829,
        "lon": -169.38769735568525,
        "alt_km": 35812.34032744991,
        "timestamp": "2025-12-16T23:36:36.461986+00:00",
        "meta_object_name": "BEIDOU-3 G3 (C61)",
        "meta_object_id": "2020-040A",
        "meta_epoch": "2025-12-16T07:01:59.196000",
        "meta_mean_motion": 1.00272482,
        "meta_eccentricity": 0.0006341,
        "meta_inclination": 1.9998,
        "meta_ra_of_asc_node": 66.6159,
        "meta_arg_of_pericenter": 308.3775,
        "meta_mean_anomaly": 286.2679,
        "meta_ephemeris_type": 0,
        "meta_classification_type": "U",
        "meta_norad_cat_id": 45807,
        "meta_element_set_no": 999,
        "meta_rev_at_epoch": 2023,
        "meta_bstar": 0,
        "meta_mean_motion_dot": -3.32e-06,
        "meta_mean_motion_ddot": 0,
        "tle_line1": "1 45807U 20040A   25350.29304625 -.00000332  00000+0  00000+0 0  9993",
        "tle_line2": "2 45807   1.9998  66.6159 0006341 308.3775 286.2679  1.00272482 20235"
      },
      "geometry": {
        "type": "Point",
        "coordinates": [
          -169.38769735568525,
          1.6480057296443829
        ]
      }
    }
  ]
}